FLOCK 4G-13             
1 62621U 25009N   26068.70638971  .00053076  00000+0  16695-2 0  9995
2 62621  97.4019 151.0918 0003801 292.7207  67.3633 15.32770015 63700
STARLINK-35004          
1 65428U 25192AA  26068.70759063  .00013000  00000+0  45041-3 0  9993
2 65428  53.1586 232.4959 0001299  99.7112 260.4035 15.30190780 29385
